OBJECT_NAME,OBJECT_ID,EPOCH,MEAN_MOTION,ECCENTRICITY,INCLINATION,RA_OF_ASC_NODE,ARG_OF_PERICENTER,MEAN_ANOMALY,EPHEMERIS_TYPE,CLASSIFICATION_TYPE,NORAD_CAT_ID,ELEMENT_SET_NO,REV_AT_EPOCH,BSTAR,MEAN_MOTION_DOT,MEAN_MOTION_DDOT
STARLINK-31819,2024-090J,2026-01-17T07:42:31.684320,15.27584516,.0001477,43.0036,113.6279,272.6792,87.3891,0,U,59738,999,9558,.41714468E-4,.886E-5,0
STARLINK-31726,2024-090K,2026-01-17T22:47:05.700192,15.27568160,.00010271,43.0031,109.7447,287.0276,73.0463,0,U,59739,999,9568,-.26535697E-4,-.992E-5,0
STARLINK-31759,2024-090L,2026-01-17T14:30:36.025632,15.27594571,.00011791,43.0020,112.3133,273.6485,86.4232,0,U,59740,999,9562,-.6054248E-4,-.1928E-4,0
STARLINK-31818,2024-090M,2026-01-17T12:45:20.494944,15.27589912,.00014644,43.0009,112.6224,266.4069,93.6615,0,U,59741,999,9561,.87150923E-4,.2137E-4,0
STARLINK-31816,2024-090N,2026-01-17T22:30:38.093760,15.27578982,.00012233,42.9981,110.4920,285.1071,74.9645,0,U,59742,999,9565,-.25943522E-4,-.976E-5,0
STARLINK-31809,2024-090P,2026-01-17T07:30:59.162400,15.27499068,.00005517,43.0018,106.6457,229.6835,130.3968,0,U,59743,999,9566,.63069618E-3,.17091E-3,0
STARLINK-31779,2024-090Q,2026-01-17T22:58:11.832960,15.27572015,.00005989,43.0007,109.8054,260.0959,99.9825,0,U,59744,999,9568,-.24405762E-4,-.933E-5,0
STARLINK-31805,2024-090R,2026-01-17T22:41:32.373312,15.27578885,.00006424,43.0003,109.7138,330.1766,29.9049,0,U,59745,999,9568,-.607668E-6,-.279E-5,0
STARLINK-31681,2024-090S,2026-01-17T13:53:08.488608,15.27577897,.00009379,42.9996,105.1984,274.8494,85.2250,0,U,59746,999,9570,.13022654E-3,.3323E-4,0
STARLINK-31636,2024-090T,2026-01-17T23:01:54.183360,15.27565589,.00005524,43.0028,109.8225,275.2043,84.8746,0,U,59747,999,9568,-.47261703E-4,-.1561E-4,0
STARLINK-31640,2024-090U,2026-01-17T23:25:58.761120,15.27570384,.000079,42.9990,109.9408,255.6151,104.4613,0,U,59748,999,9568,-.22800412E-3,-.6529E-4,0
STARLINK-31677,2024-090V,2026-01-17T12:50:53.827872,15.27589854,.00010357,43.0007,112.6508,260.7927,99.2808,0,U,59749,999,9560,.81170202E-4,.1973E-4,0
STARLINK-31783,2024-090W,2026-01-17T22:26:55.041792,15.27598457,.0002199,43.0039,110.4931,279.2574,80.8029,0,U,59750,999,9566,.49221294E-4,.1093E-4,0
STARLINK-31808,2024-090X,2026-01-17T22:35:58.987680,15.27573500,.0001086,42.9996,109.6807,299.8606,60.2137,0,U,59751,999,9567,-.3652034E-5,-.362E-5,0
STARLINK-31822,2024-090Y,2026-01-17T23:07:25.638816,15.27588649,.00011948,43.0021,109.8481,286.6209,73.4511,0,U,59752,999,9567,.29520632E-4,.551E-5,0
STARLINK-11118 [DTC],2024-091B,2026-01-17T21:53:30.773472,15.69697548,.00007147,53.1584,96.9102,93.3956,266.7144,0,U,59754,999,9753,-.15479612E-4,-.2462E-4,0
STARLINK-11132 [DTC],2024-091C,2026-01-17T12:29:17.599776,15.69693610,.00012624,53.1600,98.7312,93.8349,266.2813,0,U,59755,999,9747,-.13440108E-4,-.2215E-4,0
STARLINK-11131 [DTC],2024-091D,2026-01-17T12:22:13.724832,15.69695532,.00013586,53.1600,98.7013,103.7370,256.3799,0,U,59756,999,9747,-.18775767E-4,-.2861E-4,0
STARLINK-11114 [DTC],2024-091E,2026-01-17T12:15:08.915904,15.69711418,.00015647,53.1602,98.6863,105.1163,255.0028,0,U,59757,999,9747,.4111233E-5,-.91E-6,0
STARLINK-11105 [DTC],2024-091F,2026-01-17T12:08:07.134432,15.69678218,.00010081,53.1584,98.6507,79.2544,280.8588,0,U,59758,999,9747,-.29088967E-4,-.4106E-4,0
STARLINK-11097 [DTC],2024-091G,2026-01-17T12:01:00.702912,15.69712102,.00008969,53.1584,98.5996,96.6685,263.4435,0,U,59759,999,9747,.6457155E-5,.194E-5,0
STARLINK-11098 [DTC],2024-091H,2026-01-17T22:35:45.742560,15.69693546,.00010065,53.1602,96.3680,82.9156,277.1976,0,U,59760,999,9754,-.10838402E-4,-.19E-4,0
STARLINK-11117 [DTC],2024-091J,2026-01-17T22:28:41.823552,15.69693014,.00009755,53.1592,96.3370,91.1417,268.9712,0,U,59761,999,9754,-.12377134E-4,-.2086E-4,0
STARLINK-11110 [DTC],2024-091K,2026-01-17T11:39:48.284064,15.69731403,.00012038,53.1600,98.5037,82.2177,277.8978,0,U,59762,999,9747,.24510936E-4,.2384E-4,0
STARLINK-11104 [DTC],2024-091L,2026-01-17T22:14:33.650304,15.69706046,.0001172,53.1601,96.2712,102.0073,258.1076,0,U,59763,999,9754,-.13467004E-4,-.2219E-4,0
STARLINK-11111 [DTC],2024-091M,2026-01-17T22:00:26.270208,15.69693209,.00015151,53.1578,96.2067,102.5155,257.6033,0,U,59764,999,9754,-.23805107E-4,-.347E-4,0
STARLINK-11106 [DTC],2024-091N,2026-01-17T22:07:30.514080,15.69696463,.0001305,53.1588,96.2387,99.9269,260.1897,0,U,59765,999,9754,-.17693298E-4,-.273E-4,0
STARLINK-31739,2024-091P,2026-01-17T22:13:43.685184,15.30188740,.00011922,53.1587,259.7482,100.1930,259.9205,0,U,59766,999,9527,-.11645048E-4,-.704E-5,0
STARLINK-31828,2024-091Q,2026-01-17T22:35:59.369568,15.30147113,.00009911,53.1620,262.6789,56.1542,303.9553,0,U,59767,999,9523,-.15322057E-3,-.4886E-4,0
STARLINK-31826,2024-091R,2026-01-17T22:40:29.004096,15.30190362,.00012011,53.1582,262.6993,86.8064,273.3074,0,U,59768,999,9523,.2133281E-4,.273E-5,0
STARLINK-31830,2024-091S,2026-01-17T22:45:04.093920,15.30166634,.0001341,53.1585,262.7165,86.5108,273.6046,0,U,59769,999,9523,-.78279645E-4,-.2674E-4,0
STARLINK-31829,2024-091T,2026-01-17T22:31:21.523584,15.30207063,.00013142,53.1608,262.6627,101.8339,258.2810,0,U,59770,999,9523,.11216243E-3,.2965E-4,0
STARLINK-31786,2024-091U,2026-01-17T21:17:03.171264,15.30244671,.00009461,53.1591,263.0480,71.3169,288.7935,0,U,59771,999,9522,-.35702819E-3,-.10932E-3,0
STARLINK-31835,2024-091V,2026-01-17T20:52:43.851072,15.30199936,.00003898,53.1592,262.9379,125.8723,234.2314,0,U,59772,999,9522,.78594402E-4,.197E-4,0
COSMOS 2576,2024-092A,2026-01-17T18:39:49.431744,15.27484206,.0010109,97.4248,135.2203,29.4050,330.7756,0,U,59773,999,9348,.35297E-3,.9434E-4,0
2024-092B,2024-092B,2026-01-17T22:09:03.686976,15.25138387,.00094485,97.6304,143.5057,354.8763,5.2376,0,U,59774,999,9260,.37289652E-3,.9283E-4,0
2024-092C,2024-092C,2026-01-17T23:14:48.588288,15.25753284,.00095851,97.6440,144.9603,356.8509,3.2667,0,U,59775,999,9264,.41985057E-3,.10658E-3,0
2024-092D,2024-092D,2026-01-17T20:46:51.549888,15.30517133,.00077752,97.6386,145.6275,326.8114,33.2637,0,U,59776,999,9270,.56077482E-3,.16499E-3,0
2024-092E,2024-092E,2026-01-17T20:56:20.308992,15.30441778,.00080312,97.6385,145.6105,327.3069,32.7673,0,U,59777,999,9270,.56830024E-3,.16684E-3,0
2024-092F,2024-092F,2026-01-17T20:18:41.446656,15.30971418,.00081028,97.6382,145.7643,327.1027,32.9709,0,U,59778,999,9271,.56819467E-3,.16958E-3,0
2024-092G,2024-092G,2026-01-17T21:50:14.039808,14.31764728,.00108818,98.6526,137.2781,291.8092,68.1933,0,U,59779,999,8739,.77235964E-4,.162E-5,0
2024-092H,2024-092H,2026-01-17T21:50:06.192096,14.31763479,.00112576,98.6532,137.2722,293.2236,66.7761,0,U,59780,999,8739,.79883539E-4,.169E-5,0
2024-092J,2024-092J,2026-01-17T21:48:10.335744,14.31764531,.00111483,98.6526,137.2755,293.5171,66.4841,0,U,59781,999,8739,.78936813E-4,.166E-5,0
STARLINK-31363,2024-093A,2026-01-17T16:47:00.555936,15.27587043,.00010791,43.0025,133.6589,268.3465,91.7263,0,U,59782,999,9493,.54055192E-4,.1226E-4,0
STARLINK-31868,2024-093B,2026-01-17T16:48:51.004512,15.27584340,.00014341,43.0021,133.6319,265.4832,94.5855,0,U,59783,999,9493,.33968035E-4,.673E-5,0
STARLINK-31848,2024-093C,2026-01-17T16:11:51.984672,15.27587423,.00009154,42.9973,133.5160,279.3204,80.7544,0,U,59784,999,9493,.82493339E-4,.2009E-4,0
STARLINK-31890,2024-093D,2026-01-17T16:17:24.716256,15.27589260,.00011435,42.9997,133.5470,268.5701,91.5019,0,U,59785,999,9493,.35361232E-4,.711E-5,0
STARLINK-31862,2024-093E,2026-01-17T15:37:51.612384,15.27588405,.00014707,43.0025,136.7997,266.8894,93.1790,0,U,59786,999,9489,.41574004E-4,.882E-5,0
STARLINK-31870,2024-093F,2026-01-17T17:06:28.194912,15.27570034,.00011009,43.0023,136.4042,258.1981,101.8747,0,U,59787,999,9490,.10250958E-3,.2559E-4,0
STARLINK-31888,2024-093G,2026-01-17T14:12:57.395808,15.27587125,.0001371,43.0023,137.2161,252.2173,107.8529,0,U,59788,999,9488,.40154741E-4,.843E-5,0
STARLINK-31863,2024-093H,2026-01-17T14:09:15.594048,15.27584461,.0001767,43.0013,137.1974,272.4121,87.6529,0,U,59789,999,9488,.69139477E-4,.1641E-4,0
STARLINK-31873,2024-093J,2026-01-17T15:58:13.209888,15.27582083,.0001524,43.0032,136.9059,270.9010,89.1667,0,U,59790,999,9489,.7707338E-4,.1859E-4,0
STARLINK-31865,2024-093K,2026-01-17T14:29:36.638592,15.27587009,.000143,43.0010,137.3019,262.3863,97.6826,0,U,59791,999,9488,.68468208E-4,.1623E-4,0
STARLINK-31823,2024-093N,2026-01-17T14:35:09.840192,15.27587233,.00014362,43.0009,137.3298,271.4027,88.6660,0,U,59794,999,9488,.42710403E-4,.914E-5,0
STARLINK-31916,2024-093P,2026-01-17T16:14:53.182752,15.27563248,.00012517,43.0022,136.9884,238.6259,121.4470,0,U,59795,999,9489,-.81251792E-4,-.2496E-4,0
STARLINK-31907,2024-093R,2026-01-17T16:18:33.494112,15.27606861,.00010978,43.0011,137.0082,268.2713,91.8012,0,U,59797,999,9489,-.99169287E-4,-.2992E-4,0
STARLINK-31687,2024-093S,2026-01-17T16:55:34.324896,15.27593069,.00006709,43.0010,137.2032,259.8369,100.2407,0,U,59798,999,9489,-.2512444E-5,-.331E-5,0
STARLINK-31810,2024-093T,2026-01-17T08:44:26.794464,15.27583980,.00011404,42.9993,138.9413,276.2788,83.7934,0,U,59799,999,9484,.11767337E-4,.62E-6,0
STARLINK-31812,2024-093U,2026-01-17T16:24:07.062048,15.27588904,.00011747,42.9993,137.0362,271.9526,88.1192,0,U,59800,999,9496,.57667743E-4,.1326E-4,0
STARLINK-31815,2024-093V,2026-01-17T16:29:39.683904,15.27604694,.00011814,42.9996,137.0646,268.4633,91.6083,0,U,59801,999,9489,-.54172071E-4,-.1754E-4,0
STARLINK-31814,2024-093W,2026-01-17T09:10:20.246592,15.27575582,.00011571,43.0026,139.0648,271.3950,88.6769,0,U,59802,999,9484,.55563173E-4,.1267E-4,0
STARLINK-31794,2024-093X,2026-01-17T16:46:19.325856,15.27589177,.00007021,42.9999,137.1520,285.3513,74.7261,0,U,59803,999,9496,.48800878E-4,.1082E-4,0
STARLINK-31824,2024-093Y,2026-01-17T16:40:46.648704,15.27582721,.00006511,42.9966,137.1208,271.6543,88.4234,0,U,59804,999,9489,.30653475E-4,.582E-5,0
2024-094A,2024-094A,2026-01-17T22:42:30.117888,15.16467655,.00074822,97.4058,92.4685,5.4880,354.6434,0,U,59805,999,9239,.41335735E-3,.7987E-4,0
